$$SOE
2461302.500000000, A.D. 2026-Sep-19 00:00:00.0000, 3.230216602502926E+08, 6.657898683307984E+06, 1.359266066944837E+07,
2461309.500000000, A.D. 2026-Sep-26 00:00:00.0000, 3.243260539148450E+08, 1.901606293987010E+07, 1.283113310534194E+07,
2461316.500000000, A.D. 2026-Oct-03 00:00:00.0000, 3.251724292043995E+08, 3.134739330285699E+07, 1.205148099806607E+07,
2461323.500000000, A.D. 2026-Oct-10 00:00:00.0000, 3.255669878174986E+08, 4.363518528033864E+07, 1.125507972366607E+07,
2461330.500000000, A.D. 2026-Oct-17 00:00:00.0000, 3.255164419521876E+08, 5.586333528780548E+07, 1.044328702206339E+07,
2461337.500000000, A.D. 2026-Oct-24 00:00:00.0000, 3.250279680449286E+08, 6.801634170744352E+07, 9.617440908806913E+06,
2461344.500000000, A.D. 2026-Oct-31 00:00:00.0000, 3.241091628273931E+08, 8.007930299696195E+07, 8.778857845557354E+06,
2461351.500000000, A.D. 2026-Nov-07 00:00:00.0000, 3.227680021184617E+08, 9.203791325559908E+07, 7.928831128023475E+06,
2461358.500000000, A.D. 2026-Nov-14 00:00:00.0000, 3.210128025960212E+08, 1.038784564408521E+08, 7.068629527935736E+06,
2461365.500000000, A.D. 2026-Nov-21 00:00:00.0000, 3.188521847469123E+08, 1.155878002060289E+08, 6.199496393199600E+06,
2461372.500000000, A.D. 2026-Nov-28 00:00:00.0000, 3.162950359905897E+08, 1.271533866192800E+08, 5.322649034384511E+06,
2461379.500000000, A.D. 2026-Dec-05 00:00:00.0000, 3.133504775624335E+08, 1.385632193484675E+08, 4.439277992526196E+06,
2461386.500000000, A.D. 2026-Dec-12 00:00:00.0000, 3.100278352599739E+08, 1.498058506474834E+08, 3.550546408523455E+06,
2461393.500000000, A.D. 2026-Dec-19 00:00:00.0000, 3.063366120939240E+08, 1.608703683609297E+08, 2.657589650970340E+06,
2461400.500000000, A.D. 2026-Dec-26 00:00:00.0000, 3.022864626249070E+08, 1.717463822703833E+08, 1.761515128945522E+06,
2461407.500000000, A.D. 2027-Jan-02 00:00:00.0000, 2.978871691779909E+08, 1.824240097631197E+08, 8.634022341282368E+05,
2461414.500000000, A.D. 2027-Jan-09 00:00:00.0000, 2.931486199624351E+08, 1.928938609970907E+08, -3.569761066381633E+04,
2461421.500000000, A.D. 2027-Jan-16 00:00:00.0000, 2.880807890383186E+08, 2.031470237077175E+08, -9.347608119380027E+05,
2461428.500000000, A.D. 2027-Jan-23 00:00:00.0000, 2.826937180799670E+08, 2.131750477381647E+08, -1.832791394431368E+06,
2461435.500000000, A.D. 2027-Jan-30 00:00:00.0000, 2.769975000275335E+08, 2.229699293526075E+08, -2.728820750704587E+06,
2461442.500000000, A.D. 2027-Feb-06 00:00:00.0000, 2.710022649568087E+08, 2.325240957656203E+08, -3.621907373147190E+06,
2461449.500000000, A.D. 2027-Feb-13 00:00:00.0000, 2.647181676106925E+08, 2.418303911836517E+08, -4.511136436528236E+06,
2461456.500000000, A.D. 2027-Feb-20 00:00:00.0000, 2.581553741277071E+08, 2.508820636352542E+08, -5.395619087180614E+06,
2461463.500000000, A.D. 2027-Feb-27 00:00:00.0000, 2.513240492746576E+08, 2.596727494434073E+08, -6.274491836755246E+06,
2461470.500000000, A.D. 2027-Mar-06 00:00:00.0000, 2.442343471209700E+08, 2.681964573130389E+08, -7.146916188206807E+06,
2461477.500000000, A.D. 2027-Mar-13 00:00:00.0000, 2.368964034687582E+08, 2.764475541209688E+08, -8.012078186660036E+06,
2461484.500000000, A.D. 2027-Mar-20 00:00:00.0000, 2.293203288266911E+08, 2.844207516078917E+08, -8.869187865498245E+06,
2461491.500000000, A.D. 2027-Mar-27 00:00:00.0000, 2.215162020531760E+08, 2.921110934523408E+08, -9.717478656257197E+06,
2461498.500000000, A.D. 2027-Apr-03 00:00:00.0000, 2.134940647995489E+08, 2.995139427016659E+08, -1.055620678954662E+07,
2461505.500000000, A.D. 2027-Apr-10 00:00:00.0000, 2.052639167460205E+08, 3.066249696005391E+08, -1.138465069492176E+07,
2461512.500000000, A.D. 2027-Apr-17 00:00:00.0000, 1.968357115876170E+08, 3.134401398156494E+08, -1.220211040658891E+07,
2461519.500000000, A.D. 2027-Apr-24 00:00:00.0000, 1.882193537881067E+08, 3.199557030037664E+08, -1.300790699051484E+07,
2461526.500000000, A.D. 2027-May-01 00:00:00.0000, 1.794246963442021E+08, 3.261681817578820E+08, -1.380138202101403E+07,
2461533.500000000, A.D. 2027-May-08 00:00:00.0000, 1.704615398152862E+08, 3.320743616845608E+08, -1.458189707666297E+07,
2461540.500000000, A.D. 2027-May-15 00:00:00.0000, 1.613396310733536E+08, 3.376712835638380E+08, -1.534883304287420E+07,
2461547.500000000, A.D. 2027-May-22 00:00:00.0000, 1.520686601575095E+08, 3.429562349939280E+08, -1.610158929054672E+07,
2461554.500000000, A.D. 2027-May-29 00:00:00.0000, 1.426582585427293E+08, 3.479267400559173E+08, -1.683958315990178E+07,
2461561.500000000, A.D. 2027-Jun-05 00:00:00.0000, 1.331179996719217E+08, 3.525805501301697E+08, -1.756224957710628E+07,
2461568.500000000, A.D. 2027-Jun-12 00:00:00.0000, 1.234573997068144E+08, 3.569156362886421E+08, -1.826904058569513E+07,
2461575.500000000, A.D. 2027-Jun-19 00:00:00.0000, 1.136859181309980E+08, 3.609301823215288E+08, -1.895942483983772E+07,
2461582.500000000, A.D. 2027-Jun-26 00:00:00.0000, 1.038129584532111E+08, 3.646225781301180E+08, -1.963288710746783E+07,
2461589.500000000, A.D. 2027-Jul-03 00:00:00.0000, 9.384786911457607E+07, 3.679914134845275E+08, -2.028892779547861E+07,
2461596.500000000, A.D. 2027-Jul-10 00:00:00.0000, 8.379994460880218E+07, 3.710354721423366E+08, -2.092706249978133E+07,
2461603.500000000, A.D. 2027-Jul-17 00:00:00.0000, 7.367842682263890E+07, 3.737537262759574E+08, -2.154682158619761E+07,
2461610.500000000, A.D. 2027-Jul-24 00:00:00.0000, 6.349250672322327E+07, 3.761453311362054E+08, -2.214774982097986E+07,
2461617.500000000, A.D. 2027-Jul-31 00:00:00.0000, 5.325132677637029E+07, 3.782096201839141E+08, -2.272940606940565E+07,
2461624.500000000, A.D. 2027-Aug-07 00:00:00.0000, 4.296398387390906E+07, 3.799461018419980E+08, -2.329136295106849E+07,
2461631.500000000, A.D. 2027-Aug-14 00:00:00.0000, 3.263953045443550E+07, 3.813544576106573E+08, -2.383320626289275E+07,
2461638.500000000, A.D. 2027-Aug-21 00:00:00.0000, 2.228697441822290E+07, 3.824345381696385E+08, -2.435453450125904E+07,
2461645.500000000, A.D. 2027-Aug-28 00:00:00.0000, 1.191528124743631E+07, 3.831863586664963E+08, -2.485495870002390E+07,
2461652.500000000, A.D. 2027-Sep-04 00:00:00.0000, 1.533377136897480E+06, 3.836100956899337E+08, -2.533410227303705E+07,
2461659.500000000, A.D. 2027-Sep-11 00:00:00.0000, -8.849848274219375E+06, 3.837060852578033E+08, -2.579160078755839E+07,
2461666.500000000, A.D. 2027-Sep-18 00:00:00.0000, -1.922553945272500E+07, 3.834748211618353E+08, -2.622710173402466E+07,
2461673.500000000, A.D. 2027-Sep-25 00:00:00.0000, -2.958487259038911E+07, 3.829169535861318E+08, -2.664026431987861E+07,
2461680.500000000, A.D. 2027-Oct-02 00:00:00.0000, -3.991905323102657E+07, 3.820332880228106E+08, -2.703075929260379E+07,
2461687.500000000, A.D. 2027-Oct-09 00:00:00.0000, -5.021931389711015E+07, 3.808247844767691E+08, -2.739826879494230E+07,
2461694.500000000, A.D. 2027-Oct-16 00:00:00.0000, -6.047691166622397E+07, 3.792925569016173E+08, -2.774248626309806E+07,
2461701.500000000, A.D. 2027-Oct-23 00:00:00.0000, -7.068312545093344E+07, 3.774378728584452E+08, -2.806311639271730E+07,
2461708.500000000, A.D. 2027-Oct-30 00:00:00.0000, -8.082925262136060E+07, 3.752621540062356E+08, -2.835987515771994E+07,
2461715.500000000, A.D. 2027-Nov-06 00:00:00.0000, -9.090660614764553E+07, 3.727669785532362E+08, -2.863248968420631E+07,
2461722.500000000, A.D. 2027-Nov-13 00:00:00.0000, -1.009065142580235E+08, 3.699540835925631E+08, -2.888069796788763E+07,
2461729.500000000, A.D. 2027-Nov-20 00:00:00.0000, -1.108203197234680E+08, 3.668253651293031E+08, -2.910424887900750E+07,
2461736.500000000, A.D. 2027-Nov-27 00:00:00.0000, -1.206393771702689E+08, 3.633828787641579E+08, -2.930290236138123E+07,
2461743.500000000, A.D. 2027-Dec-04 00:00:00.0000, -1.303550504587726E+08, 3.596288419528153E+08, -2.947642956705076E+07,
2461750.500000000, A.D. 2027-Dec-11 00:00:00.0000, -1.399587106921941E+08, 3.555656368776716E+08, -2.962461295555873E+07,
2461757.500000000, A.D. 2027-Dec-18 00:00:00.0000, -1.494417345962601E+08, 3.511958135929165E+08, -2.974724641126376E+07,
2461764.500000000, A.D. 2027-Dec-25 00:00:00.0000, -1.587955031345617E+08, 3.465220934423338E+08, -2.984413539356241E+07,
2461771.500000000, A.D. 2028-Jan-01 00:00:00.0000, -1.680114003354610E+08, 3.415473727666075E+08, -2.991509712348431E+07,
$$EOE